<?xml version="1.0" encoding="UTF-8"?>
<kml xmlns="http://www.opengis.net/kml/2.2">
  <Document>
    <name>EDC Orlando</name>
    <description/>
    <Style id="icon-1899-0288D1-nodesc-normal">
      <IconStyle>
        <color>ffd18802</color>
        <scale>1</scale>
        <Icon>
          <href>https://www.gstatic.com/mapspro/images/stock/503-wht-blank_maps.png</href>
        </Icon>
        <hotSpot x="32" xunits="pixels" y="64" yunits="insetPixels"/>
      </IconStyle>
      <LabelStyle>
        <scale>0</scale>
      </LabelStyle>
      <BalloonStyle>
        <text><![CDATA[<h3>$[name]</h3>]]></text>
      </BalloonStyle>
    </Style>
    <Style id="icon-1899-0288D1-nodesc-highlight">
      <IconStyle>
        <color>ffd18802</color>
        <scale>1</scale>
        <Icon>
          <href>https://www.gstatic.com/mapspro/images/stock/503-wht-blank_maps.png</href>
        </Icon>
        <hotSpot x="32" xunits="pixels" y="64" yunits="insetPixels"/>
      </IconStyle>
      <LabelStyle>
        <scale>1</scale>
      </LabelStyle>
      <BalloonStyle>
        <text><![CDATA[<h3>$[name]</h3>]]></text>
      </BalloonStyle>
    </Style>
    <StyleMap id="icon-1899-0288D1-nodesc">
      <Pair>
        <key>normal</key>
        <styleUrl>#icon-1899-0288D1-nodesc-normal</styleUrl>
      </Pair>
      <Pair>
        <key>highlight</key>
        <styleUrl>#icon-1899-0288D1-nodesc-highlight</styleUrl>
      </Pair>
    </StyleMap>
    <Style id="line-000000-1200-nodesc-normal">
      <LineStyle>
        <color>ff000000</color>
        <width>1.2</width>
      </LineStyle>
      <BalloonStyle>
        <text><![CDATA[<h3>$[name]</h3>]]></text>
      </BalloonStyle>
    </Style>
    <Style id="line-000000-1200-nodesc-highlight">
      <LineStyle>
        <color>ff000000</color>
        <width>1.8</width>
      </LineStyle>
      <BalloonStyle>
        <text><![CDATA[<h3>$[name]</h3>]]></text>
      </BalloonStyle>
    </Style>
    <StyleMap id="line-000000-1200-nodesc">
      <Pair>
        <key>normal</key>
        <styleUrl>#line-000000-1200-nodesc-normal</styleUrl>
      </Pair>
      <Pair>
        <key>highlight</key>
        <styleUrl>#line-000000-1200-nodesc-highlight</styleUrl>
      </Pair>
    </StyleMap>
    <Style id="poly-000000-1200-77-nodesc-normal">
      <LineStyle>
        <color>ff000000</color>
        <width>1.2</width>
      </LineStyle>
      <PolyStyle>
        <color>4d000000</color>
        <fill>1</fill>
        <outline>1</outline>
      </PolyStyle>
      <BalloonStyle>
        <text><![CDATA[<h3>$[name]</h3>]]></text>
      </BalloonStyle>
    </Style>
    <Style id="poly-000000-1200-77-nodesc-highlight">
      <LineStyle>
        <color>ff000000</color>
        <width>1.8</width>
      </LineStyle>
      <PolyStyle>
        <color>4d000000</color>
        <fill>1</fill>
        <outline>1</outline>
      </PolyStyle>
      <BalloonStyle>
        <text><![CDATA[<h3>$[name]</h3>]]></text>
      </BalloonStyle>
    </Style>
    <StyleMap id="poly-000000-1200-77-nodesc">
      <Pair>
        <key>normal</key>
        <styleUrl>#poly-000000-1200-77-nodesc-normal</styleUrl>
      </Pair>
      <Pair>
        <key>highlight</key>
        <styleUrl>#poly-000000-1200-77-nodesc-highlight</styleUrl>
      </Pair>
    </StyleMap>
    <Style id="poly-0288D1-1200-77-nodesc-normal">
      <LineStyle>
        <color>ffd18802</color>
        <width>1.2</width>
      </LineStyle>
      <PolyStyle>
        <color>4dd18802</color>
        <fill>1</fill>
        <outline>1</outline>
      </PolyStyle>
      <BalloonStyle>
        <text><![CDATA[<h3>$[name]</h3>]]></text>
      </BalloonStyle>
    </Style>
    <Style id="poly-0288D1-1200-77-nodesc-highlight">
      <LineStyle>
        <color>ffd18802</color>
        <width>1.8</width>
      </LineStyle>
      <PolyStyle>
        <color>4dd18802</color>
        <fill>1</fill>
        <outline>1</outline>
      </PolyStyle>
      <BalloonStyle>
        <text><![CDATA[<h3>$[name]</h3>]]></text>
      </BalloonStyle>
    </Style>
    <StyleMap id="poly-0288D1-1200-77-nodesc">
      <Pair>
        <key>normal</key>
        <styleUrl>#poly-0288D1-1200-77-nodesc-normal</styleUrl>
      </Pair>
      <Pair>
        <key>highlight</key>
        <styleUrl>#poly-0288D1-1200-77-nodesc-highlight</styleUrl>
      </Pair>
    </StyleMap>
    <Style id="poly-BDBDBD-1200-77-nodesc-normal">
      <LineStyle>
        <color>ffbdbdbd</color>
        <width>1.2</width>
      </LineStyle>
      <PolyStyle>
        <color>4dbdbdbd</color>
        <fill>1</fill>
        <outline>1</outline>
      </PolyStyle>
      <BalloonStyle>
        <text><![CDATA[<h3>$[name]</h3>]]></text>
      </BalloonStyle>
    </Style>
    <Style id="poly-BDBDBD-1200-77-nodesc-highlight">
      <LineStyle>
        <color>ffbdbdbd</color>
        <width>1.8</width>
      </LineStyle>
      <PolyStyle>
        <color>4dbdbdbd</color>
        <fill>1</fill>
        <outline>1</outline>
      </PolyStyle>
      <BalloonStyle>
        <text><![CDATA[<h3>$[name]</h3>]]></text>
      </BalloonStyle>
    </Style>
    <StyleMap id="poly-BDBDBD-1200-77-nodesc">
      <Pair>
        <key>normal</key>
        <styleUrl>#poly-BDBDBD-1200-77-nodesc-normal</styleUrl>
      </Pair>
      <Pair>
        <key>highlight</key>
        <styleUrl>#poly-BDBDBD-1200-77-nodesc-highlight</styleUrl>
      </Pair>
    </StyleMap>
    <Folder>
      <name>Untitled layer</name>
      <Placemark>
        <name>EDC OuterBounds</name>
        <styleUrl>#poly-BDBDBD-1200-77-nodesc</styleUrl>
        <Polygon>
          <outerBoundaryIs>
            <LinearRing>
              <tessellate>1</tessellate>
              <coordinates>
                -81.4054107,28.5400376,0
                -81.4052712,28.5369367,0
                -81.4046704,28.5365409,0
                -81.4035868,28.5360507,0
                -81.4032649,28.5359659,0
                -81.4024066,28.5357963,0
                -81.4021599,28.5363995,0
                -81.4015161,28.5366068,0
                -81.401087,28.5366163,0
                -81.3993596,28.5366068,0
                -81.3993382,28.537474,0
                -81.3993167,28.5382657,0
                -81.3983404,28.5382563,0
                -81.3983833,28.5393119,0
                -81.3991665,28.5393025,0
                -81.3991665,28.5400848,0
                -81.3999712,28.5401036,0
                -81.3998854,28.5393213,0
                -81.4013445,28.5393402,0
                -81.4013338,28.5379075,0
                -81.4021491,28.5377898,0
                -81.4024818,28.5375305,0
                -81.403045,28.5375211,0
                -81.4037424,28.5378227,0
                -81.403965,28.5380866,0
                -81.4039623,28.5383882,0
                -81.4038872,28.5400471,0
                -81.4054107,28.5400376,0
              </coordinates>
            </LinearRing>
          </outerBoundaryIs>
        </Polygon>
      </Placemark>
      <Placemark>
        <name>Water (Blocked)</name>
        <styleUrl>#poly-0288D1-1200-77-nodesc</styleUrl>
        <Polygon>
          <outerBoundaryIs>
            <LinearRing>
              <tessellate>1</tessellate>
              <coordinates>
                -81.4041593,28.5364939,0
                -81.4032098,28.5360744,0
                -81.4027498,28.5365493,0
                -81.4033815,28.537116,0
                -81.4041593,28.5364939,0
              </coordinates>
            </LinearRing>
          </outerBoundaryIs>
        </Polygon>
      </Placemark>
      <Placemark>
        <name>Water (Blocked)</name>
        <styleUrl>#poly-0288D1-1200-77-nodesc</styleUrl>
        <Polygon>
          <outerBoundaryIs>
            <LinearRing>
              <tessellate>1</tessellate>
              <coordinates>
                -81.4032474,28.5371442,0
                -81.4026358,28.5365881,0
                -81.4022496,28.5367955,0
                -81.4022657,28.5372385,0
                -81.4024427,28.5374034,0
                -81.4031186,28.5373987,0
                -81.4032474,28.5371442,0
              </coordinates>
            </LinearRing>
          </outerBoundaryIs>
        </Polygon>
      </Placemark>
      <Placemark>
        <name>Conex Sound Barriers (Blocked)</name>
        <styleUrl>#poly-0288D1-1200-77-nodesc</styleUrl>
        <Polygon>
          <outerBoundaryIs>
            <LinearRing>
              <tessellate>1</tessellate>
              <coordinates>
                -81.4052282,28.5376202,0
                -81.4052496,28.5374929,0
                -81.4046381,28.5374976,0
                -81.4046381,28.5376343,0
                -81.4052282,28.5376202,0
              </coordinates>
            </LinearRing>
          </outerBoundaryIs>
        </Polygon>
      </Placemark>
      <Placemark>
        <name>Conex Sounds Barriers (Blocked)</name>
        <styleUrl>#poly-0288D1-1200-77-nodesc</styleUrl>
        <Polygon>
          <outerBoundaryIs>
            <LinearRing>
              <tessellate>1</tessellate>
              <coordinates>
                -81.4045549,28.5376225,0
                -81.4045496,28.5375094,0
                -81.4039488,28.5375094,0
                -81.4039595,28.5376272,0
                -81.4045549,28.5376225,0
              </coordinates>
            </LinearRing>
          </outerBoundaryIs>
        </Polygon>
      </Placemark>
      <Placemark>
        <name>Point 6</name>
        <styleUrl>#icon-1899-0288D1-nodesc</styleUrl>
        <Point>
          <coordinates>
            -81.4013284,28.537785,0
          </coordinates>
        </Point>
      </Placemark>
      <Placemark>
        <name>Kinetic to Circuit Path</name>
        <styleUrl>#line-000000-1200-nodesc</styleUrl>
        <LineString>
          <tessellate>1</tessellate>
          <coordinates>
            -81.4013873,28.5377814,0
            -81.4020096,28.5377295,0
            -81.4023904,28.5374845,0
            -81.4027847,28.5374656,0
            -81.4031737,28.5374562,0
            -81.4037959,28.5377531,0
            -81.4039461,28.5379039,0
          </coordinates>
        </LineString>
      </Placemark>
      <Placemark>
        <name>Casa to Stereo</name>
        <styleUrl>#line-000000-1200-nodesc</styleUrl>
        <LineString>
          <tessellate>1</tessellate>
          <coordinates>
            -81.4026613,28.536549,0
            -81.4033963,28.5371994,0
          </coordinates>
        </LineString>
      </Placemark>
      <Placemark>
        <name>Casa to Stereo route 2</name>
        <styleUrl>#line-000000-1200-nodesc</styleUrl>
        <LineString>
          <tessellate>1</tessellate>
          <coordinates>
            -81.4031656,28.5360165,0
            -81.4038951,28.5362851,0
            -81.404453,28.5366008,0
          </coordinates>
        </LineString>
      </Placemark>
      <Placemark>
        <name>Entry/Exit</name>
        <styleUrl>#poly-000000-1200-77-nodesc</styleUrl>
        <Polygon>
          <outerBoundaryIs>
            <LinearRing>
              <tessellate>1</tessellate>
              <coordinates>
                -81.3999712,28.5401036,0
                -81.3998854,28.5393213,0
                -81.3991665,28.5393025,0
                -81.3991665,28.5400848,0
                -81.3999712,28.5401036,0
              </coordinates>
            </LinearRing>
          </outerBoundaryIs>
        </Polygon>
      </Placemark>
      <Placemark>
        <name>Food Vendors (Blocked)</name>
        <styleUrl>#poly-0288D1-1200-77-nodesc</styleUrl>
        <Polygon>
          <outerBoundaryIs>
            <LinearRing>
              <tessellate>1</tessellate>
              <coordinates>
                -81.4023444,28.5374412,0
                -81.4022962,28.5373799,0
                -81.4020548,28.5375401,0
                -81.4018294,28.537592,0
                -81.401529,28.537592,0
                -81.4015129,28.5369511,0
                -81.4014271,28.5369558,0
                -81.4014432,28.5376721,0
                -81.4015129,28.5376721,0
                -81.4018241,28.5376721,0
                -81.4020226,28.5376297,0
                -81.4023444,28.5374412,0
              </coordinates>
            </LinearRing>
          </outerBoundaryIs>
        </Polygon>
      </Placemark>
      <Placemark>
        <name>Carnival/Tents/etc</name>
        <styleUrl>#poly-000000-1200-77-nodesc</styleUrl>
        <Polygon>
          <outerBoundaryIs>
            <LinearRing>
              <tessellate>1</tessellate>
              <coordinates>
                -81.3998827,28.5392876,0
                -81.4013043,28.5393112,0
                -81.4012989,28.538609,0
                -81.3998934,28.5385949,0
                -81.3998827,28.5392876,0
              </coordinates>
            </LinearRing>
          </outerBoundaryIs>
        </Polygon>
      </Placemark>
    </Folder>
    <Folder>
      <name>Untitled layer</name>
      <Placemark>
        <name>Circuit Grounds</name>
        <styleUrl>#icon-1899-0288D1-nodesc</styleUrl>
        <Point>
          <coordinates>
            -81.4047035,28.5398631,0
          </coordinates>
        </Point>
      </Placemark>
      <Placemark>
        <name>Stereo Bloom</name>
        <styleUrl>#icon-1899-0288D1-nodesc</styleUrl>
        <Point>
          <coordinates>
            -81.405079,28.5369412,0
          </coordinates>
        </Point>
      </Placemark>
      <Placemark>
        <name>Casa Bacardi</name>
        <styleUrl>#icon-1899-0288D1-nodesc</styleUrl>
        <Point>
          <coordinates>
            -81.4025148,28.5361024,0
          </coordinates>
        </Point>
      </Placemark>
      <Placemark>
        <name>Kinetic Field</name>
        <styleUrl>#icon-1899-0288D1-nodesc</styleUrl>
        <Point>
          <coordinates>
            -81.3996502,28.5367716,0
          </coordinates>
        </Point>
      </Placemark>
      <Placemark>
        <name>Neon Garden</name>
        <styleUrl>#icon-1899-0288D1-nodesc</styleUrl>
        <Point>
          <coordinates>
            -81.3988884,28.5391656,0
          </coordinates>
        </Point>
      </Placemark>
    </Folder>
    <Folder>
      <name>Untitled layer</name>
    </Folder>
    <Folder>
      <name>Untitled layer</name>
    </Folder>
  </Document>
</kml>
